[{"OBJECT_NAME":"QIANFAN-114","OBJECT_ID":"2026-075F","EPOCH":"2026-04-25T16:03:35.894016","MEAN_MOTION":14.20441775,"ECCENTRICITY":0.00163536,"INCLINATION":88.9899,"RA_OF_ASC_NODE":326.6292,"ARG_OF_PERICENTER":157.16,"MEAN_ANOMALY":203.0321,"EPHEMERIS_TYPE":0,"CLASSIFICATION_TYPE":"U","NORAD_CAT_ID":68641,"ELEMENT_SET_NO":999,"REV_AT_EPOCH":257,"BSTAR":4.3444578e-5,"MEAN_MOTION_DOT":1.08e-6,"MEAN_MOTION_DDOT":0},{"OBJECT_NAME":"QIANFAN-115","OBJECT_ID":"2026-075G","EPOCH":"2026-04-25T17:42:31.856544","MEAN_MOTION":14.20357282,"ECCENTRICITY":0.0015915,"INCLINATION":88.9898,"RA_OF_ASC_NODE":326.6208,"ARG_OF_PERICENTER":156.8885,"MEAN_ANOMALY":203.3025,"EPHEMERIS_TYPE":0,"CLASSIFICATION_TYPE":"U","NORAD_CAT_ID":68642,"ELEMENT_SET_NO":999,"REV_AT_EPOCH":258,"BSTAR":4.3170047e-5,"MEAN_MOTION_DOT":1.07e-6,"MEAN_MOTION_DDOT":0},{"OBJECT_NAME":"QIANFAN-116","OBJECT_ID":"2026-075H","EPOCH":"2026-04-25T17:38:50.123904","MEAN_MOTION":14.20671566,"ECCENTRICITY":0.00156886,"INCLINATION":88.9897,"RA_OF_ASC_NODE":326.6202,"ARG_OF_PERICENTER":156.2316,"MEAN_ANOMALY":203.9603,"EPHEMERIS_TYPE":0,"CLASSIFICATION_TYPE":"U","NORAD_CAT_ID":68643,"ELEMENT_SET_NO":999,"REV_AT_EPOCH":258,"BSTAR":5.1236848e-5,"MEAN_MOTION_DOT":1.25e-6,"MEAN_MOTION_DDOT":0},{"OBJECT_NAME":"QIANFAN-117","OBJECT_ID":"2026-075J","EPOCH":"2026-04-25T16:07:25.654944","MEAN_MOTION":14.20246882,"ECCENTRICITY":0.0015725,"INCLINATION":88.9898,"RA_OF_ASC_NODE":326.6296,"ARG_OF_PERICENTER":155.5568,"MEAN_ANOMALY":204.6371,"EPHEMERIS_TYPE":0,"CLASSIFICATION_TYPE":"U","NORAD_CAT_ID":68644,"ELEMENT_SET_NO":999,"REV_AT_EPOCH":257,"BSTAR":4.1700923e-5,"MEAN_MOTION_DOT":1.04e-6,"MEAN_MOTION_DDOT":0},{"OBJECT_NAME":"QIANFAN-118","OBJECT_ID":"2026-075K","EPOCH":"2026-04-25T17:36:47.902464","MEAN_MOTION":14.21389605,"ECCENTRICITY":0.00151098,"INCLINATION":88.9897,"RA_OF_ASC_NODE":326.6201,"ARG_OF_PERICENTER":154.2574,"MEAN_ANOMALY":205.9372,"EPHEMERIS_TYPE":0,"CLASSIFICATION_TYPE":"U","NORAD_CAT_ID":68645,"ELEMENT_SET_NO":999,"REV_AT_EPOCH":258,"BSTAR":4.6919735e-5,"MEAN_MOTION_DOT":1.17e-6,"MEAN_MOTION_DDOT":0},{"OBJECT_NAME":"QIANFAN-119","OBJECT_ID":"2026-075L","EPOCH":"2026-04-25T17:26:50.473248","MEAN_MOTION":14.22771211,"ECCENTRICITY":0.00154336,"INCLINATION":88.99,"RA_OF_ASC_NODE":326.6194,"ARG_OF_PERICENTER":155.9439,"MEAN_ANOMALY":204.2477,"EPHEMERIS_TYPE":0,"CLASSIFICATION_TYPE":"U","NORAD_CAT_ID":68646,"ELEMENT_SET_NO":999,"REV_AT_EPOCH":258,"BSTAR":4.0403455e-5,"MEAN_MOTION_DOT":1.05e-6,"MEAN_MOTION_DDOT":0},{"OBJECT_NAME":"QIANFAN-120","OBJECT_ID":"2026-075M","EPOCH":"2026-04-25T17:26:49.691328","MEAN_MOTION":14.22213654,"ECCENTRICITY":0.00155165,"INCLINATION":88.99,"RA_OF_ASC_NODE":326.6194,"ARG_OF_PERICENTER":155.9673,"MEAN_ANOMALY":204.2246,"EPHEMERIS_TYPE":0,"CLASSIFICATION_TYPE":"U","NORAD_CAT_ID":68647,"ELEMENT_SET_NO":999,"REV_AT_EPOCH":258,"BSTAR":4.5056858e-5,"MEAN_MOTION_DOT":1.15e-6,"MEAN_MOTION_DDOT":0},{"OBJECT_NAME":"QIANFAN-121","OBJECT_ID":"2026-075N","EPOCH":"2026-04-25T17:24:03.846528","MEAN_MOTION":14.22352068,"ECCENTRICITY":0.00149336,"INCLINATION":88.99,"RA_OF_ASC_NODE":326.6191,"ARG_OF_PERICENTER":157.0021,"MEAN_ANOMALY":203.1842,"EPHEMERIS_TYPE":0,"CLASSIFICATION_TYPE":"U","NORAD_CAT_ID":68648,"ELEMENT_SET_NO":999,"REV_AT_EPOCH":258,"BSTAR":4.9207229e-5,"MEAN_MOTION_DOT":1.24e-6,"MEAN_MOTION_DDOT":0},{"OBJECT_NAME":"QIANFAN-122","OBJECT_ID":"2026-075P","EPOCH":"2026-04-25T17:18:53.697312","MEAN_MOTION":14.22896672,"ECCENTRICITY":0.00150744,"INCLINATION":88.9899,"RA_OF_ASC_NODE":326.6185,"ARG_OF_PERICENTER":156.2014,"MEAN_ANOMALY":203.9878,"EPHEMERIS_TYPE":0,"CLASSIFICATION_TYPE":"U","NORAD_CAT_ID":68649,"ELEMENT_SET_NO":999,"REV_AT_EPOCH":258,"BSTAR":4.5699436e-5,"MEAN_MOTION_DOT":1.17e-6,"MEAN_MOTION_DDOT":0},{"OBJECT_NAME":"QIANFAN-123","OBJECT_ID":"2026-075Q","EPOCH":"2026-04-25T16:03:44.222976","MEAN_MOTION":14.20189912,"ECCENTRICITY":0.00154258,"INCLINATION":88.9896,"RA_OF_ASC_NODE":326.6288,"ARG_OF_PERICENTER":156.3529,"MEAN_ANOMALY":203.8373,"EPHEMERIS_TYPE":0,"CLASSIFICATION_TYPE":"U","NORAD_CAT_ID":68650,"ELEMENT_SET_NO":999,"REV_AT_EPOCH":254,"BSTAR":4.504179e-5,"MEAN_MOTION_DOT":1.11e-6,"MEAN_MOTION_DDOT":0},{"OBJECT_NAME":"QIANFAN-124","OBJECT_ID":"2026-075R","EPOCH":"2026-04-25T17:19:00.656832","MEAN_MOTION":14.22716822,"ECCENTRICITY":0.00156529,"INCLINATION":88.9899,"RA_OF_ASC_NODE":326.6185,"ARG_OF_PERICENTER":156.0214,"MEAN_ANOMALY":204.171,"EPHEMERIS_TYPE":0,"CLASSIFICATION_TYPE":"U","NORAD_CAT_ID":68651,"ELEMENT_SET_NO":999,"REV_AT_EPOCH":258,"BSTAR":4.7937154e-5,"MEAN_MOTION_DOT":1.22e-6,"MEAN_MOTION_DDOT":0},{"OBJECT_NAME":"QIANFAN-125","OBJECT_ID":"2026-075S","EPOCH":"2026-04-25T17:13:40.414368","MEAN_MOTION":14.23396718,"ECCENTRICITY":0.00153673,"INCLINATION":88.9901,"RA_OF_ASC_NODE":326.6181,"ARG_OF_PERICENTER":156.4671,"MEAN_ANOMALY":203.7228,"EPHEMERIS_TYPE":0,"CLASSIFICATION_TYPE":"U","NORAD_CAT_ID":68652,"ELEMENT_SET_NO":999,"REV_AT_EPOCH":258,"BSTAR":4.170909e-5,"MEAN_MOTION_DOT":1.09e-6,"MEAN_MOTION_DDOT":0},{"OBJECT_NAME":"QIANFAN-126","OBJECT_ID":"2026-075T","EPOCH":"2026-04-25T17:03:29.149056","MEAN_MOTION":14.24951047,"ECCENTRICITY":0.00154242,"INCLINATION":88.9899,"RA_OF_ASC_NODE":326.6168,"ARG_OF_PERICENTER":155.9416,"MEAN_ANOMALY":204.25,"EPHEMERIS_TYPE":0,"CLASSIFICATION_TYPE":"U","NORAD_CAT_ID":68653,"ELEMENT_SET_NO":999,"REV_AT_EPOCH":258,"BSTAR":3.7740327e-5,"MEAN_MOTION_DOT":1.03e-6,"MEAN_MOTION_DDOT":0},{"OBJECT_NAME":"CZ-8 R/B","OBJECT_ID":"2026-075U","EPOCH":"2026-04-25T16:10:07.647168","MEAN_MOTION":14.40037067,"ECCENTRICITY":0.00733879,"INCLINATION":88.9889,"RA_OF_ASC_NODE":326.57,"ARG_OF_PERICENTER":60.8107,"MEAN_ANOMALY":300.041,"EPHEMERIS_TYPE":0,"CLASSIFICATION_TYPE":"U","NORAD_CAT_ID":68654,"ELEMENT_SET_NO":999,"REV_AT_EPOCH":259,"BSTAR":5.8506955e-5,"MEAN_MOTION_DOT":2.07e-6,"MEAN_MOTION_DDOT":0},{"OBJECT_NAME":"HULIANWANG DIGUI-164","OBJECT_ID":"2026-076A","EPOCH":"2026-04-24T09:06:10.679328","MEAN_MOTION":13.74946566,"ECCENTRICITY":0.00017717,"INCLINATION":86.4956,"RA_OF_ASC_NODE":62.6243,"ARG_OF_PERICENTER":105.309,"MEAN_ANOMALY":254.8268,"EPHEMERIS_TYPE":0,"CLASSIFICATION_TYPE":"U","NORAD_CAT_ID":68656,"ELEMENT_SET_NO":999,"REV_AT_EPOCH":215,"BSTAR":-0.00097510267,"MEAN_MOTION_DOT":-9.12e-6,"MEAN_MOTION_DDOT":0},{"OBJECT_NAME":"HULIANWANG DIGUI-165","OBJECT_ID":"2026-076B","EPOCH":"2026-04-24T17:46:08.054400","MEAN_MOTION":13.74468974,"ECCENTRICITY":0.00028286,"INCLINATION":86.4957,"RA_OF_ASC_NODE":62.4923,"ARG_OF_PERICENTER":115.2808,"MEAN_ANOMALY":244.8647,"EPHEMERIS_TYPE":0,"CLASSIFICATION_TYPE":"U","NORAD_CAT_ID":68657,"ELEMENT_SET_NO":999,"REV_AT_EPOCH":220,"BSTAR":0.00018103874,"MEAN_MOTION_DOT":1.88e-6,"MEAN_MOTION_DDOT":0},{"OBJECT_NAME":"HULIANWANG DIGUI-166","OBJECT_ID":"2026-076C","EPOCH":"2026-04-24T08:57:59.186016","MEAN_MOTION":13.75290951,"ECCENTRICITY":0.00016972,"INCLINATION":86.492,"RA_OF_ASC_NODE":62.6107,"ARG_OF_PERICENTER":91.4568,"MEAN_ANOMALY":268.6789,"EPHEMERIS_TYPE":0,"CLASSIFICATION_TYPE":"U","NORAD_CAT_ID":68658,"ELEMENT_SET_NO":999,"REV_AT_EPOCH":215,"BSTAR":-0.00054374613,"MEAN_MOTION_DOT":-5.04e-6,"MEAN_MOTION_DDOT":0}]
