QIANFAN-114             
1 68641U 26075F   26115.66916544  .00000108  00000+0  43445-4 0  9993
2 68641  88.9899 326.6292 0016353 157.1600 203.0321 14.20441775  2576
QIANFAN-115             
1 68642U 26075G   26115.73786871  .00000107  00000+0  43170-4 0  9994
2 68642  88.9898 326.6208 0015915 156.8885 203.3025 14.20357282  2581
QIANFAN-116             
1 68643U 26075H   26115.73530236  .00000125  00000+0  51237-4 0  9990
2 68643  88.9897 326.6202 0015688 156.2316 203.9603 14.20671566  2587
QIANFAN-117             
1 68644U 26075J   26115.67182471  .00000104  00000+0  41701-4 0  9990
2 68644  88.9898 326.6296 0015725 155.5568 204.6371 14.20246882  2573
QIANFAN-118             
1 68645U 26075K   26115.73388776  .00000117  00000+0  46920-4 0  9996
2 68645  88.9897 326.6201 0015109 154.2574 205.9372 14.21389605  2586
QIANFAN-119             
1 68646U 26075L   26115.72697307  .00000105  00000+0  40403-4 0  9996
2 68646  88.9900 326.6194 0015433 155.9439 204.2477 14.22771211  2588
QIANFAN-120             
1 68647U 26075M   26115.72696402  .00000115  00000+0  45057-4 0  9993
2 68647  88.9900 326.6194 0015516 155.9673 204.2246 14.22213654  2587
QIANFAN-121             
1 68648U 26075N   26115.72504452  .00000124  00000+0  49207-4 0  9998
2 68648  88.9900 326.6191 0014933 157.0021 203.1842 14.22352068  2580
QIANFAN-122             
1 68649U 26075P   26115.72145483  .00000117  00000+0  45699-4 0  9997
2 68649  88.9899 326.6185 0015074 156.2014 203.9878 14.22896672  2582
QIANFAN-123             
1 68650U 26075Q   26115.66926184  .00000111  00000+0  45042-4 0  9993
2 68650  88.9896 326.6288 0015425 156.3529 203.8373 14.20189912  2542
QIANFAN-124             
1 68651U 26075R   26115.72153538  .00000122  00000+0  47937-4 0  9993
2 68651  88.9899 326.6185 0015652 156.0214 204.1710 14.22716822  2583
QIANFAN-125             
1 68652U 26075S   26115.71782887  .00000109  00000+0  41709-4 0  9994
2 68652  88.9901 326.6181 0015367 156.4671 203.7228 14.23396718  2586
QIANFAN-126             
1 68653U 26075T   26115.71075404  .00000103  00000+0  37740-4 0  9999
2 68653  88.9899 326.6168 0015424 155.9416 204.2500 14.24951047  2585
CZ-8 R/B                
1 68654U 26075U   26115.67369962  .00000207  00000+0  58507-4 0  9999
2 68654  88.9889 326.5700 0073387  60.8107 300.0410 14.40037067  2590
HULIANWANG DIGUI-164    
1 68656U 26076A   26114.37929027 -.00000912  00000+0 -97510-3 0  9993
2 68656  86.4956  62.6243 0001771 105.3090 254.8268 13.74946566  2152
HULIANWANG DIGUI-165    
1 68657U 26076B   26114.74037100  .00000188  00000+0  18104-3 0  9992
2 68657  86.4957  62.4923 0002828 115.2808 244.8647 13.74468974  2206
HULIANWANG DIGUI-166    
1 68658U 26076C   26114.37360169 -.00000504  00000+0 -54375-3 0  9990
2 68658  86.4920  62.6107 0001697  91.4568 268.6789 13.75290951  2158
